ID Comet,NÚMERO de Estación,NOMBRE,DIRECCIÓN,BARRIO,COMUNA,EMPLAZAMIENTO,LATITUD,LONGITUD
2,2,RETIRO I,Av. Dr. José María Ramos Mejía 1300,RETIRO,COMUNA 1,PLAZA,-34.592.424.135.701.100,-5.837.470.989.599.140
3,3,ADUANA,Moreno 4,MONSERRAT,COMUNA 1,VEREDA,-346.111,-583.682
4,4,PLAZA ROMA,Av. Corrientes 100,SAN NICOLAS,COMUNA 1,VEREDA,-3.460.299.498.843.600,58.368.832.321.694.600
5,5,PLAZA ITALIA,Av. Sarmiento 2601,PALERMO,COMUNA 14,VEREDA,-345.807,-584.204
6,6,PARQUE LEZAMA,Av. Martín Garcia 295,SAN TELMO,COMUNA 1,PLAZA,-346.283,-583.694
7,7,OBELISCO,Carlos Pellegrini 215,SAN NICOLAS,COMUNA 1,PLAZOLETA,-346.055,-583.808
8,8,CONGRESO,Virrey Cevallos 84,MONSERRAT,COMUNA 1,PLAZA,-346.101,-583.891
9,9,PARQUE LAS HERAS,Av. Cnel. Diaz 2300,PALERMO,COMUNA 14,PLAZA,-345.856,-584.078
12,12,PLAZA VICENTE LOPEZ,Parana 1307,RECOLETA,COMUNA 2,PLAZA,-345.928,-583.886
13,13,ONCE,Av. Pueyrredón 3,BALVANERA,COMUNA 3,PLAZA,-346.101,-58.406
14,14,PACÍFICO,Av. Int. Bullrich 550,PALERMO,COMUNA 14,VEREDA,-345.778,-584.253
17,17,PLAZA ALMAGRO,Bulnes 441,ALMAGRO,COMUNA 5,CALZADA,-346.064,-584.185
21,21,PARQUE PATRICIOS,Iguazu 201,PARQUE PATRICIOS,COMUNA 4,PLAZOLETA,-346.403,-584.065
22,22,ARENALES,Cerrito 1234,RETIRO,COMUNA 1,PLAZOLETA,-345.943,-583.828
23,23,SUIPACHA,Suipacha 691,SAN NICOLAS,COMUNA 1,VEREDA,-346.003,-583.796
24,24,ALSINA,Bernardo Irigoyen 150,MONSERRAT,COMUNA 1,PLAZOLETA,-346.107,-583.806
25,25,PLAZA GÜEMES,Gral. Lucio Norberto Mensilla 3828,PALERMO,COMUNA 14,PLAZA,-345.897,-584.165
26,26,JUANA MANSO I,462 Emma de la Barra,PUERTO MADERO,COMUNA 1,VEREDA,-346.004,-583.639
27,27,MONTEVIDEO,Av. Córdoba 1606,SAN NICOLAS,COMUNA 1,VEREDA,-345.994,-583.897
29,29,PARQUE CENTENARIO,Av. Patricias Argentinas 74,CABALLITO,COMUNA 6,PLAZA,-34.608,-584.334
30,30,PEÑA,Peña 2300,RECOLETA,COMUNA 2,CALZADA,-345.906,-583.974
32,32,CATEDRAL,Bartolomé Mitre 470,SAN NICOLAS,COMUNA 1,VEREDA,-34.606.854.280.458.700,-5.837.323.075.981.730
33,33,FACULTAD DE MEDICINA,Pres. José Evaristo Uriburu 987,RECOLETA,COMUNA 2,VEREDA,-345.977,-583.989
35,35,INGENIERO BUTTY,Ing. Enrique Butty 291,RETIRO,COMUNA 1,PLAZOLETA,-345.962,-583.717
36,36,MAIPÙ,Tucumán 536,SAN NICOLAS,COMUNA 1,CALZADA,-34.600.989,-58.374.525
38,38,PLAZA LIBERTAD,Cerrito 990,RETIRO,COMUNA 1,VEREDA,-345.972,-583.826
41,41,PARQUE PATRICIOS II,3015 Av. Caseros,PARQUE PATRICIOS,COMUNA 4,VEREDA,-34.637.404.093.626.700,-5.840.572.857.857.670
43,334,CENTRO DE EXPOSICIONES,Figueroa Alcorta 2133,RECOLETA,COMUNA 2,PLAZOLETA,-345.839,-58.391
44,44,ECOPARQUE,Av. Del Libertador 3260,PALERMO,COMUNA 14,VEREDA,-345.759,-584.135
45,45,URUGUAY,Uruguay 561,SAN NICOLAS,COMUNA 1,VEREDA,-346.021,-583.866
46,46,CHILE,Perú 718,SAN TELMO,COMUNA 1,VEREDA,-34.616.428,-58.374.515
48,34,COLONIA EXPRESS,Elvira Rawson de Dellepiane 150,PUERTO MADERO,COMUNA 1,VEREDA,-34.624.271,-58.363.232
49,49,33 ORIENTALES,Constituciòn 4122,BOEDO,COMUNA 5,CALZADA,-346.288,-584.223
50,50,HOSPITAL RIVADAVIA,Pereyra Lucena 2516,PALERMO,COMUNA 14,CALZADA,-345.837,-584.011
51,51,TUCUMÀN,Tucuman 1087,SAN NICOLAS,COMUNA 1,PLAZOLETA,-346.014,-583.816
54,54,ACUÑA DE FIGUEROA,Lavalle 4010,ALMAGRO,COMUNA 5,CALZADA,-345.982,-584.219
56,56,PLAZA PALERMO VIEJO,Armenia 1829,PALERMO,COMUNA 14,CALZADA,-345.885,-584.258
57,57,BELGRANO,Balcarce 482,MONSERRAT,COMUNA 1,VEREDA,-34.613.504,-58.370.659
58,58,MINISTRO CARRANZA,"Av, Santa Fe 5327",PALERMO,COMUNA 14,VEREDA,-345.751,-584.355
59,18,INDEPENDENCIA,Av. Independencia 1000,MONSERRAT,COMUNA 1,PLAZOLETA,-346.176,-583.799
60,60,25 DE mayo,25 De may 0527,SAN NICOLAS,COMUNA 1,VEREDA,-346.017,-583.712
61,98,BENITO JUAREZ,Benito Juarez 2231,MONTE CASTRO,COMUNA 10,CALZADA,-346.189,-585.051
63,63,RECONQUISTA,Viamonte 555,SAN NICOLAS,COMUNA 1,VEREDA,-34.599.813,-58.374.677
64,64,RIOBAMBA,Riobamba 1264,RECOLETA,COMUNA 2,CALZADA,-34.594,-583.944
65,65,JULIÁN ALVAREZ,Guemes 3822,PALERMO,COMUNA 14,CALZADA,-345.872,-584.159
66,66,BILLINGHURST,De La Carcova 3508,RECOLETA,COMUNA 2,CALZADA,-345.946,-584.139
68,105,PARQUE SAAVEDRA,García del Río 3590,SAAVEDRA,COMUNA 12,CALZADA,-345.522,-584.805
69,69,ECUADOR,Ecuador 1226,RECOLETA,COMUNA 2,PLAZOLETA,-345.958,-584.045
70,70,ARAOZ,Araoz 1413,PALERMO,COMUNA 14,CALZADA,-345.927,-584.258
71,71,CERRITO,Av. Pres. Roque Sáenz Peña 1194,SAN NICOLAS,COMUNA 1,VEREDA,-346.034,-583.822
73,73,RUY DIAZ DE GUZMAN,99 Ruy Díaz de Guzmán,LA BOCA,COMUNA 4,PLAZOLETA,-346.305,-583.717
74,74,INSTITUTO LELOIR,Juana de Ibarbourou 1037,CABALLITO,COMUNA 6,VEREDA,-346.044,-584.347
75,75,PLAZA PRIMERO DE MAYO,Pichincha 238,BALVANERA,COMUNA 3,CALZADA,-346.124,-583.989
76,76,AYACUCHO,Ayacucho 150,BALVANERA,COMUNA 3,CALZADA,-346.071,-58.395
77,109,ESTACION PUEYRREDON,Bolivia 5071,VILLA PUEYRREDON,COMUNA 12,VEREDA,-345.811,-585.015
79,79,AZUCENA VILLAFLOR,Azucena Villaflor 260,PUERTO MADERO,COMUNA 1,PLAZOLETA,-346.121,-583.636
80,80,VALLE,Valle 486,CABALLITO,COMUNA 6,VEREDA,-3.462.445.120.607.340,-5.843.426.217.687.040
82,82,HOSPITAL ITALIANO,Rawson 394,ALMAGRO,COMUNA 5,CALZADA,-346.074,-584.263
83,83,PARANÀ,Lavalle 1590,SAN NICOLAS,COMUNA 1,CALZADA,-346.031,-583.893
85,85,AGÜERO,Aguero 1282,RECOLETA,COMUNA 2,CALZADA,-345.945,-584.089
86,86,SAAVEDRA,Saavedra 1019,SAN CRISTOBAL,COMUNA 3,CALZADA,-346.213,-584.018
87,87,GUAYAQUIL,Guayaquil 219,CABALLITO,COMUNA 6,CALZADA,-346.198,-584.313
89,89,CABELLO,3082 Cabello,PALERMO,COMUNA 14,CALZADA,-345.825,-584.054
91,91,PASCO,Pasco 708,BALVANERA,COMUNA 3,CALZADA,-346.175,-583.976
92,92,SALCEDO,Salcedo 2908,PARQUE PATRICIOS,COMUNA 4,CALZADA,-346.317,-58.405
93,93,CARLOS CALVO,Sarandi 1010,SAN CRISTOBAL,COMUNA 3,CALZADA,-346.208,-583.945
94,94,GUZMÁN,Av. Guzman 129,CHACARITA,COMUNA 15,PLAZA,-345.917,-584.497
95,95,ESMERALDA,Av. Antártida Argentina y Cecilia Grierson,PUERTO MADERO,COMUNA 1,VEREDA,-3.459.836.067.704.460,-58.368.272.681.366.000
96,96,CARLOS GARDEL,Guardia Vieja 3302,BALVANERA,COMUNA 3,CALZADA,-346.029,-584.116
98,37,CLAUDIA PIA BRAUDACCO,Esmeralda 5,SAN NICOLAS,COMUNA 1,VEREDA,-346.082,-583.778
99,99,MALABIA,Malabia 780,VILLA CRESPO,COMUNA 15,CALZADA,-345.963,-584.356
101,101,FITZ ROY,Fitz Roy 1092,CHACARITA,COMUNA 15,CALZADA,-345.891,-584.424
102,102,ROSETI,Roseti 390,CHACARITA,COMUNA 15,CALZADA,-34.585.039,-58.449.411
104,104,FEDERICO LACROZE,Av. Guzman 1000,CHACARITA,COMUNA 15,PLAZOLETA,-345.857,-584.602
107,107,HOSPITAL GARRAHAN,Av. Brasil 2290,PARQUE PATRICIOS,COMUNA 4,VEREDA,-34.630.377.186.594.800,-583.958.441.087.033
111,111,MACACHA GUEMES,350 Macacha Güemes,PUERTO MADERO,COMUNA 1,PLAZOLETA,-346.048,-583.639
112,112,9 DE julio,Bernardo de Irigoyen 320,MONSERRAT,COMUNA 1,PLAZOLETA,-346.121,-583.805
114,114,DELLA PAOLERA,Carlos M. Della Paolera 297,RETIRO,COMUNA 1,PLAZOLETA,-345.949,-583.723
116,116,HOSPITAL ALEMÁN,Beruti 2592,RECOLETA,COMUNA 2,CALZADA,-345.921,-584.028
117,117,HUMBERTO 1°,Av. Carlos Calvo 513,SAN TELMO,COMUNA 1,CALZADA,-34.619.610,-58.373.186
118,118,MÉXICO,Saavedra 618,BALVANERA,COMUNA 3,CALZADA,-346.167,-584.027
120,120,HOSPITAL RAMOS MEJÍA,Agrelo 3048,BALVANERA,COMUNA 3,CALZADA,-346.176,-584.092
121,121,YATAY,Yatay 925,ALMAGRO,COMUNA 5,CALZADA,-346.007,-584.283
122,122,COSTA RICA,Costa Rica 4060,PALERMO,COMUNA 14,PLAZA,34.591.648,-58.419.581
124,124,UGARTECHE,Ugarteche 3050,PALERMO,COMUNA 14,CALZADA,-345.808,-584.121
126,126,MINISTERIO DE JUSTICIA Y SEGURIDAD,Av. Regimiento De Patricios 1107,LA BOCA,COMUNA 4,VEREDA,-346.402,-583.692
128,128,PARQUE DEL BAJO,Tte. Gral. Juan Domingo Perón 133,SAN NICOLAS,COMUNA 1,PLAZA,-3.460.515.159.134.760,-5.836.882.117.863.410
130,130,RETIRO II,Av. Dr. José María Ramos Mejía 115,RETIRO,COMUNA 1,PLAZA,-34.591.737.677.280.200,-5.837.436.403.766.990
131,131,HOSPITAL DE CLÍNICAS,Pres. José E. Uriburu 888,RECOLETA,COMUNA 2,VEREDA,-345.983,-58.399
132,132,CORRIENTES,Av. Corrientes 420,SAN NICOLAS,COMUNA 1,PLAZOLETA,-346.031,-583.725
134,134,SOLDADO DE LA FRONTERA,Ana Diaz 5651,VILLA LUGANO,COMUNA 8,VEREDA,-34.683.188,-58.468.952
135,135,MARCELO T. DE ALVEAR,Esmeralda 902,RETIRO,COMUNA 1,VEREDA,-345.975,-583.784
137,137,AZOPARDO Y CHILE,Azopardo 700,MONSERRAT,COMUNA 1,CALZADA,-346.156,-583.675
138,138,HOSPITAL BRITÁNICO,153 Perdriel,BARRACAS,COMUNA 4,CALZADA,-346.354,-583.877
144,144,PUEYRREDÓN,Boulogne Sur Mer 684,BALVANERA,COMUNA 3,CALZADA,-346.021,-584.061
146,146,HOSPITAL FRANCÉS,Carlos Calvo 3015,SAN CRISTOBAL,COMUNA 3,CALZADA,-346.222,-584.078
149,149,LIMA,Mexico 1000,MONSERRAT,COMUNA 1,PLAZOLETA,-346.153,-583.816
150,150,RODRIGO BUENO,Av. España 2200,PUERTO MADERO,COMUNA 1,VEREDA,-346.233,-583.535
151,151,AIME PAINÉ,Azucena Villaflor 489,PUERTO MADERO,COMUNA 1,PLAZOLETA,-346.116,-583.619
152,152,JULIETA LANTERI,Julieta Lanteri 1715,PUERTO MADERO,COMUNA 1,PLAZA,-346.173,-583.598
153,153,JUAN MANUEL BLANES,Av. Alte. Brown 653,LA BOCA,COMUNA 4,VEREDA,-34.630.966,-58.362.831
155,155,PARQUE URIBURU,Quilmes 491,NUEVA POMPEYA,COMUNA 4,CALZADA,-3.464.504.689.342.970,-5.841.744.881.739.320
156,156,PLAZA ALEMANIA,Cavia 2939,PALERMO,COMUNA 14,CALZADA,-345.778,-584.075
158,158,VILLARROEL,Villarroel 1321,CHACARITA,COMUNA 15,CALZADA,-345.925,-584.452
161,161,HUMAHUACA,Humahuaca 3912,ALMAGRO,COMUNA 5,CALZADA,-346.021,-584.195
162,162,LARREA Y BARTOLOMÉ MITRE,Larrea 80,BALVANERA,COMUNA 3,VEREDA,-34.609,-58.402
163,163,ONCE II,Av. Puerredon 35,BALVANERA,COMUNA 3,PLAZA,-346.088,-58.406
164,164,FACULTAD DE INGENIERÍA,Av. Paseo Colón 823,SAN TELMO,COMUNA 1,VEREDA,-3.461.733.439.654.630,-58.369.682.027.706.300
165,165,PLAZA MONSEÑOR MIGUEL DE ANDREA,Dr. Tomas Manuel de Anchorena 984,RECOLETA,COMUNA 2,VEREDA,-34.597,-584.076
166,166,CEMENTERIO DE RECOLETA,Vicente Lopez 2100,RECOLETA,COMUNA 2,VEREDA,-345.894,-583.928
167,275,PLAZA 24 DE SEPTIEMBRE,"Av, San Martin 1355",CABALLITO,COMUNA 6,PLAZA,-346.072,-58.448
168,168,ESTADOS UNIDOS,Estados Unidos 1000,CONSTITUCION,COMUNA 1,VEREDA,-346.185,-583.815
169,169,FACULTAD DE PSICOLOGIA,Hipólito Yrigoyen 3221,BALVANERA,COMUNA 3,PLAZA CERRADA,-346.119,-584.117
171,171,PASTEUR,Pasteur 519,BALVANERA,COMUNA 3,CALZADA,-346.031,-583.995
172,172,BRASIL,Brasil 406,SAN TELMO,COMUNA 1,PLAZA,-346.254,-583.711
174,174,MINISTERIO DE EDUCACIÓN,Marcelo T. de Alvear 1697,RECOLETA,COMUNA 2,PLAZOLETA,-345.972,-583.918
175,147,CONSTITUCIÓN,Av. Juan de Garay 1150,CONSTITUCION,COMUNA 1,PLAZOLETA,-346.268,-583.816
176,67,PARQUE SARMIENTO I,Av. Dr. Ricardo Balbin 4402,SAAVEDRA,COMUNA 12,VEREDA,-345.555,-584.958
177,177,PLANETARIO,Av. Belisario Roldan 4300,PALERMO,COMUNA 14,VEREDA,-345.681,-584.122
179,179,CASA SAN,Olavarria 861,LA BOCA,COMUNA 4,CALZADA,-346.385,-583.644
181,181,BILLINGHURST Y MANSILLA,Billinghurst 1520,RECOLETA,COMUNA 2,CALZADA,0,0
182,182,RAVIGNANI Y GUATEMALA,Dr. Emilio Ravignani 2185,PALERMO,COMUNA 14,CALZADA,-345.781,-584.352
183,183,VIRREY CEVALLOS,Mexico 1652,MONSERRAT,COMUNA 1,CALZADA,-346.156,-583.897
184,184,PEDRO ECHAGUE,Pedro Echague 1878,PARQUE PATRICIOS,COMUNA 4,CALZADA,-346.307,-583.913
186,186,MANZANA 66,Moreno 2875,BALVANERA,COMUNA 3,PLAZA,-346.135,-584.062
187,261,QUINTEROS LIDORO,Av. J. Lidoro Quinteros 1483,BELGRANO,COMUNA 13,PLAZOLETA,-345.525,-584.509
188,373,JORGELINA DE SIMONE,Cochabamba 1755,CONSTITUCION,COMUNA 1,CALZADA,-346.239,-583.905
189,189,POSADAS,Posadas 1350,RETIRO,COMUNA 1,CALZADA,-345.885,-583.856
190,190,JUNCAL,Juncal 3302,PALERMO,COMUNA 14,CALZADA,-345.852,-58.411
191,191,RIVADAVIA Y 9 DE JULIO,Pellegrini 27,SAN NICOLAS,COMUNA 1,PLAZOLETA,-346.084,-583.807
193,193,ARENALES Y AGUERO,Arenales 2882,RECOLETA,COMUNA 2,CALZADA,-345.911,-58.406
194,194,PERÓN Y ACUÑA DE FIGUEROA,Tte. General Juan Domingo Peron 3997,ALMAGRO,COMUNA 5,CALZADA,-34.606,-584.227
196,196,HOSPITAL ARGERICH,Pi y Margall 750,LA BOCA,COMUNA 4,VEREDA,-346.278,-58.366
197,197,PLAZA CIUDAD DE UDINE,Mercedes 1480,FLORESTA,COMUNA 10,CALZADA,-346.210,-584.930
199,199,ESTADOS UNIDOS Y BOEDO,Estados Unidos 3568,BOEDO,COMUNA 5,CALZADA,-346.224,-584.159
200,200,AUSTRIA Y FRENCH,Austria 2080,RECOLETA,COMUNA 2,CALZADA,-345.882,-584.044
202,1,FACULTAD DE DERECHO,Av. Pres. Figueroa Alcorta 2120,RECOLETA,COMUNA 2,VEREDA,-345.841,-583.908
203,108,USINA DEL ARTE,Agustin R. Caffarena 49,LA BOCA,COMUNA 4,VEREDA,-346.287,-58.356
204,167,HIPÓLITO YRIGOYEN,"4300 Yrigoyen, Hipolito Av.",ALMAGRO,COMUNA 5,VEREDA,-346.151,-584.273
205,125,F. J. SANTAMARÍA DE ORO,Fray Justo Santamaria De Oro 2107,PALERMO,COMUNA 14,VEREDA,-345.834,-584.281
206,159,FITZ ROY Y GORRITI,Fitz Roy 1593,PALERMO,COMUNA 14,CALZADA,-345.849,-584.372
207,123,BASUALDO Y RODO,Guardia Nacional 1645,MATADEROS,COMUNA 9,CALZADA,-346.523,-584.874
208,145,RAVIGNANI,Emilio Ravignani 1802,PALERMO,COMUNA 14,CALZADA,-3.458.071,-5.843.840
210,335,GENERAL URQUIZA,Av. Pres. Figueroa Alcorta 3899,PALERMO,COMUNA 14,PLAZA,-345.714,-584.119
212,129,VELASCO,Juan Ramirez de Velasco 285,VILLA CRESPO,COMUNA 15,CALZADA,-346.002,-584.349
213,136,ACEVEDO,Acevedo 220,VILLA CRESPO,COMUNA 15,CALZADA,-345.996,-584.426
215,113,GUATEMALA,Guatemala 4773,PALERMO,COMUNA 14,CALZADA,-345.858,-584.251
216,59,CORONEL DÍAZ,Güemes 3328,PALERMO,COMUNA 14,CALZADA,-345.902,-584.115
219,140,LAS CASAS,Metán 3661,BOEDO,COMUNA 5,CALZADA,-346.351,-584.158
220,97,AVELINO DÍAZ,Doblas 1589,PARQUE CHACABUCO,COMUNA 7,CALZADA,-346.353,-584.275
222,160,GODOY CRUZ Y LIBERTADOR,Av. Cerviño 4301,PALERMO,COMUNA 14,VEREDA,-345.759,-584.185
223,178,JÓSE MÁRMOL,José Marmol 803,BOEDO,COMUNA 5,CALZADA,-346.235,-584.249
227,188,ARANGUREN,Dr. Juan Felipe Aranguren 131,CABALLITO,COMUNA 6,CALZADA,-346.103.607.513.338,-58.432.762.970.544.700
228,10,MADERO UCA,Av. Alicia Moreau De Justo 1600,PUERTO MADERO,COMUNA 1,VEREDA,-34.616.337,-58.365.773
229,243,PLAZOLETA CELEDONIO FLORES,Cordoba 6599,CHACARITA,COMUNA 15,PLAZOLETA,-345.817,-584.515
230,259,PLAZA CASTELLI,Echeverria 3249,BELGRANO,COMUNA 13,PLAZA CERRADA,-345.679,-584.641
231,384,PLAZA BENITO NAZAR,Valentin Virasoro 1349,VILLA CRESPO,COMUNA 15,PLAZA,-346.051.178.734.071,-5.844.599.958.909.250
232,252,TAMBORINI,Jose Pascual Tamborini 3821,COGHLAN,COMUNA 12,CALZADA,-34.56,-58.479
234,344,UNIVERSIDAD DI TELLA,Figueroa Alcorta 7350,BELGRANO,COMUNA 13,VEREDA,-345.472.856,-584.466.568
235,281,VILLA URQUIZA,Av. Triunvirato 4800,VILLA URQUIZA,COMUNA 12,VEREDA,-345.737.343.092.291,-58.486.924.092.765.200
236,254,PLAZA RAFAEL HERNÁNDEZ,Vuelta De Obligado 2004,BELGRANO,COMUNA 13,PLAZA,-345.623,-58.455
237,302,ESTACION VILLA LURO,Virgilio 90,VILLA LURO,COMUNA 10,VEREDA,-346.370,-585.011
239,391,PLAZA REPUBLICA DE ECUADOR,Av. Pres.Figueroa Alcorta  5201,PALERMO,COMUNA 14,VEREDA,-34.565.336.526.556.800,-58.420.620.761.500.100
241,348,VILLA DEL PARQUE,Pedro Lozano 3127,VILLA DEL PARQUE,COMUNA 11,PLAZOLETA,-346.009,-584.945
242,103,MALBA,Av. Pres. Figueroa Alcorta 3451,PALERMO,COMUNA 14,VEREDA,-345.772,-584.032
245,248,HÚSARES,Husares 2201,BELGRANO,COMUNA 13,CALZADA,-345.524,-58.443
247,282,TRONADOR,Guevara 1615,VILLA ORTUZAR,COMUNA 15,PLAZOLETA,-345.841,-584.663
248,346,PLAZA ZAPIOLA,Donado 2001,VILLA URQUIZA,COMUNA 12,PLAZA,-345.737,-584.743
251,388,PLAZA JOSE C PAZ,Dr. Prof. Pedro Chutro 2881,PARQUE PATRICIOS,COMUNA 4,CALZADA,-3.464.177.963.405.170,-5.840.254.647.691.810
252,331,CALIFORNIA,California 1774,BARRACAS,COMUNA 4,VEREDA,-346.471,-583.743
253,383,BOEDO Y VENEZUELA,Av. Boedo 339,ALMAGRO,COMUNA 5,VEREDA,-34.616.968,-58.416.822
254,276,PRIMERA JUNTA,Av. Rivadavia 5414,CABALLITO,COMUNA 6,VEREDA,-34.620.879,-58.441.517
255,374,PUAN,Yerbal 1290,CABALLITO,COMUNA 6,CALZADA,-346.221,-584.485
257,264,PLAZA MARCO SASTRE,Miller 2511,VILLA URQUIZA,COMUNA 12,PLAZA,-345.711,-584.809
258,336,LA PAMPA,La Pampa 2520,BELGRANO,COMUNA 13,CALZADA,-345.655,-584.554
259,290,CLUB EXCURSIONISTAS,Migueletes 1782,BELGRANO,COMUNA 13,CALZADA,-34.559.067,-58.444.122
260,371,PASEO DE LAS AMERICAS,Av. Pres.Figueroa Alcorta  6400,BELGRANO,COMUNA 13,PARQUE,-3.455.307.941.090.300,-5.843.522.348.866.200
261,272,PLAZA BRUNO GIORDANO,Bruno Giordano 727,CABALLITO,COMUNA 6,PLAZA,-346.159,-584.406
262,349,PLAZA SAENZ PEÑA,Andrés Lamas 1701,VILLA GENERAL MITRE,COMUNA 11,PLAZA,-34.609.693.723.669.000,-5.846.722.118.485.500
263,270,PLAZA DEL ANGEL GRIS,Calcena 380,FLORES,COMUNA 7,PLAZA,-346.218,-584.577
264,283,BALBIN II,Crisólogo Larralde 3811,SAAVEDRA,COMUNA 12,VEREDA,-34.555.906.184.137.900,-58.480.964.329.037.900
265,361,PLAZA DON SEGUNDO SOMBRA,Santander 2347,FLORES,COMUNA 7,VEREDA,-3.464.195.021.386.390,-5.845.052.006.658.480
267,315,BEIRO Y SAN MARTIN,Av. Francisco Beiro 3209,VILLA DEVOTO,COMUNA 11,VEREDA,-345.976,-584.985
268,399,GARCIA DEL RIO,Av. García del Río 3182,SAAVEDRA,COMUNA 12,PLAZA,-345.503,-58.477
269,260,SAN MIGUEL DE GARICOITS,Virrey Loreto 3418,COLEGIALES,COMUNA 13,PLAZA,-345.772,-584.576
270,370,BEAUCHEF,Beauchef 1995,PARQUE CHACABUCO,COMUNA 7,CALZADA,-346.401,-584.302
271,365,VENANCIO FLORES,Gral. Venancio Flores 3181,FLORESTA,COMUNA 10,VEREDA,-346.301,-584.743
273,223,GAINZA,Gral. Martín de Gainza 494,CABALLITO,COMUNA 6,CALZADA,-346.168,-584.467
275,256,PLAZA NORUEGA,Amenabar 2170,BELGRANO,COMUNA 13,PLAZA,-345.623,-584.592
277,292,PLAZA BOLIVIA,Av. Del Libertador 4976,PALERMO,COMUNA 14,VEREDA,-345.636,-584.366
278,233,MONROE,Superi 2519,COGHLAN,COMUNA 12,CALZADA,-345.641,-584.697
280,222,SIMON BOLIVAR,Baldomero Fernandez Moreno 1701,PARQUE CHACABUCO,COMUNA 7,CALZADA,-346.336,-584.501
281,350,PLAZA IRLANDA,Av. Gaona 2200,CABALLITO,COMUNA 6,PLAZA,-346.136,-584.585
284,229,RIGLOS,Riglos 1037,PARQUE CHACABUCO,COMUNA 7,CALZADA,-346.311,-58.435
289,255,BARRANCAS DE BELGRANO,Av. Virrey Vertiz 1909,BELGRANO,COMUNA 13,PLAZA,-345.599,-584.482
291,244,UADE,Lima 750,MONSERRAT,COMUNA 1,VEREDA,-34.617,-583.815
299,221,CULPINA,Culpina 121,FLORES,COMUNA 7,CALZADA,-346.316,-584.662
301,309,UTN II,Mozart 2391,VILLA LUGANO,COMUNA 10,VEREDA,-346.606,-584.675
302,340,PLAZA NUEVA POMPEYA,Traful 3800,NUEVA POMPEYA,COMUNA 4,PLAZA,-346.517,-584.141
304,395,AGRONOMIA II,Av. Francisco Beiró 2120,AGRONOMIA,COMUNA 15,VEREDA,-345.891,-584.847
307,341,COMUNA 4,Av. Perito Moreno 2881,NUEVA POMPEYA,COMUNA 4,VEREDA,-346.500,-584.248
308,251,SOLAR DE LA ABADÍA,Maure 1819,PALERMO,COMUNA 14,VEREDA,-345.677,-584.369
309,298,PLAZA DR. JUAN B. TERAN,Nogoya 5539,VILLA REAL,COMUNA 10,VEREDA,-346.217,-585.199
310,356,ESTACION LUGANO,Martiniano Leguizamón 4401,VILLA LUGANO,COMUNA 8,CALZADA,-3.467.946.504.459.150,-5.847.423.242.843.680
311,213,HOSPITAL ALVEAR,Av. Warnes 2626,LA PATERNAL,COMUNA 15,VEREDA,-345.971,-584.758
316,205,SAN MARTIN,Cucha Cucha 1471,VILLA CRESPO,COMUNA 15,CALZADA,-346.057,-584.532
318,285,ESPINOSA,Espinosa 1785,VILLA CRESPO,COMUNA 15,CALZADA,-34.604,-584.572
322,289,MONTAÑESES,Montañeses 2786,BELGRANO,COMUNA 13,CALZADA,-345.514,-584.541
323,240,ECHEVERRIA,Vidal 1981,BELGRANO,COMUNA 13,CALZADA,-345.652,-584.594
324,280,JURAMENTO,Juramento 5209,VILLA URQUIZA,COMUNA 12,CALZADA,-34.579,-584.841
327,366,VILLA OLIMPICA,Escalada 4347,VILLA LUGANO,COMUNA 8,PLAZOLETA,-346.767,-584.543
329,100,PLAZA GURRUCHAGA,Gurruchaga 1078,VILLA CRESPO,COMUNA 15,CALZADA,-345.932,-584.353
330,148,LA PATERNAL,Punta Arenas 1798,LA PATERNAL,COMUNA 15,VEREDA,-34.600.832,-58.472.058
333,203,BEIRO,Av. Beiró 3572,VILLA DEVOTO,COMUNA 11,VEREDA,-346.007,-585.033
335,206,GALICIA,Galicia 2502,VILLA GENERAL MITRE,COMUNA 11,CALZADA,-346.158,-584.708
336,207,PLAZA ARENALES,Nueva York 3949,VILLA DEVOTO,COMUNA 11,VEREDA,-3.459.973.082.956.410,-5.851.114.585.857.780
340,359,PLAZA BALCARCE,Jaramillo 2324,NUÑEZ,COMUNA 13,CALZADA,-34.547.632,-58.467.946
342,218,CAMPANA,Campana 1523,VILLA SANTA RITA,COMUNA 11,CALZADA,-346.168,-584.843
348,231,MAGARIÑOS CERVANTES,Magariños Cervantes 2465,VILLA GENERAL MITRE,COMUNA 11,VEREDA,-346.105,-584.744
349,232,SUCRE Y MARTÍNEZ,Mcal. Antonio José de Sucre 3515,BELGRANO,COMUNA 13,CALZADA,-34.570.508,-58.466.323
353,237,MADERO OFFICE,Mariquita Sanchez De Thompson 367,PUERTO MADERO,COMUNA 1,CALZADA,-345.991,-583.643
355,242,PLAZOLETA RAFAEL DEL RIEGO,O` Higgins 1327,PALERMO,COMUNA 14,PLAZOLETA,-345.674,-584.464
358,249,BALBÍN,Conesa 2519,BELGRANO,COMUNA 13,CALZADA,-345.614,-584.656
359,250,FLENI,Montañeses 2292,BELGRANO,COMUNA 13,CALZADA,-345.556,-584.505
361,258,PLAZA J.J. PASO,Moldes 1399,COLEGIALES,COMUNA 13,CALZADA,-345.691,-584.537
362,262,HOLMBERG,Holmberg 2819,VILLA URQUIZA,COMUNA 12,VEREDA,-34.565.922,-58.479.912
363,354,JOSÉ MARTÍ,Av. Eva Perón 3321,FLORES,COMUNA 7,VEREDA,-346.441,-58.463
364,381,MATIENZO Y ARCE,Tte. Benjamín Matienzo 1998,PALERMO,COMUNA 14,VEREDA,-34.570.161,-58.435.580
366,360,PLAZA RAMON FALCON,Cnel. Ramón L. Falcón 3992,VELEZ SARSFIELD,COMUNA 10,PLAZA,-346.354,-584.827
367,287,BELAUSTEGUI,Dr. Luis Belaustegui 2910,VILLA SANTA RITA,COMUNA 11,VEREDA,-3.461.666,-5.847.771
368,378,AGRONOMIA,San Martin 4351,AGRONOMIA,COMUNA 15,VEREDA,-345.983,-584.817
369,304,NAVARRO,Navarro 2625,AGRONOMIA,COMUNA 15,CALZADA,-345.923,-584.919
370,305,PLAZA MARTIN RODRIGUEZ,Pareja 3016,VILLA PUEYRREDON,COMUNA 12,CALZADA,-34.591,-585.004
371,269,PLAZA DE LA MISERICORDIA,Lautaro 400,FLORES,COMUNA 7,CALZADA,-34.632.024,-58.455.436
372,322,MARTI Y DIRECTORIO,José Marti 404,FLORES,COMUNA 7,CALZADA,-346.365,-584.701
373,265,PLAZA EXODO JUJEÑO,Liverpool 2812,PARQUE CHAS,COMUNA 15,CALZADA,-345.826,-58.481
374,367,EVA PERON,Primera Junta 3898,PARQUE AVELLANEDA,COMUNA 9,VEREDA,-346.472,-584.698
375,301,ARREGUI Y TERRADA,Arregui 2792,VILLA DEL PARQUE,COMUNA 11,CALZADA,-346.049,-584.848
376,324,LAS VICTORIAS,Av. Gaona 4660,FLORESTA,COMUNA 10,PLAZA CERRADA,-34.627.116,-58.488.456
378,215,HOSPITAL ALVAREZ,Bolivia 683,FLORES,COMUNA 7,CALZADA,-346.231,-584.683
379,390,DE LOS OMBÚES,Av. de los Ombúes 300,PALERMO,COMUNA 14,PARQUE,-345.602,-584.281
381,274,GAVILÁN,Gavilán 1200,VILLA GENERAL MITRE,COMUNA 11,VEREDA,-34.616.059,-58.465.886
382,204,BIARRITZ,Biarritz 2403,VILLA DEL PARQUE,COMUNA 11,CALZADA,-346.055,-584.774
383,263,PLAZA ECHEVERRIA,Av. Triunvirato 5100,VILLA URQUIZA,COMUNA 12,PLAZA CERRADA,-34.571.997,-58.489.444
384,267,PLAZA 25 DE AGOSTO,Giribone 1436,VILLA ORTUZAR,COMUNA 15,PLAZOLETA,-345.798,-584.619
385,268,PLAZA ARISTOBULO DEL VALLE,Campana 2628,VILLA DEL PARQUE,COMUNA 11,CALZADA,-346.064,-584.932
386,277,COGHLAN,Estomba 2647,COGHLAN,COMUNA 12,VEREDA,-345.658,-584.755
387,278,DONATO ALVAREZ,Juan Agustin Garcia 1540,LA PATERNAL,COMUNA 15,CALZADA,-34.602,-584.656
392,297,TRONADOR Y GARCIA DEL RIO,Garcia del Rio 4119,SAAVEDRA,COMUNA 12,VEREDA,0,0
393,300,JOSE ARTIGAS,Av. Del Campo 1301,LA PATERNAL,COMUNA 15,VEREDA,-345.905,-584.669
395,303,HUAURA,Huaura 1405,VILLA CRESPO,COMUNA 15,VEREDA,-345.973,-584.532
400,313,DE LOS INCAS,Av. de los Incas 4138,VILLA ORTUZAR,COMUNA 15,VEREDA,-3.457.899,-5.846.982
403,316,BUENOS AIRES,Suárez 3150,BARRACAS,COMUNA 4,PLAZA,-34.644.761,-58.394.418
407,330,PARQUE AVELLANEDA,Remedios 3895,PARQUE AVELLANEDA,COMUNA 9,CALZADA,-346.423,-584.783
408,364,CERETTI Y MANUELA PEDRAZA,Ceretti 3407,VILLA URQUIZA,COMUNA 12,CALZADA,-345.691,-585.003
412,372,VILLA SOLDATI,Carlos María Ramírez 2510,VILLA SOLDATI,COMUNA 8,VEREDA,-34.660.321,-58.431.967
413,382,MERCADO DE HACIENDA MATADEROS,Av. Lisandro de la Torre 2319,MATADEROS,COMUNA 9,VEREDA,-34.661.673.491.982.100,-5.850.141.458.974.460
414,385,FRANKLIN,Franklin 1100,CABALLITO,COMUNA 6,CALZADA,-34.611.222,-58.450.137
416,257,PLAZA FRANCISCO RAMIREZ,Manuela Pedraza 2700,NUÑEZ,COMUNA 13,CALZADA,-345.533,-58.469
417,127,PLAZA LEONARDO N. ALEM,Cochrane 2407,VILLA PUEYRREDON,COMUNA 12,VEREDA,-345.764,-585.025
418,345,PLAZA MAFALDA,Conde 102,COLEGIALES,COMUNA 13,VEREDA,-345.809,-584.446
420,375,CIUDAD UNIVERSITARIA I,Intendente Güiraldes 2160,BELGRANO,COMUNA 13,VEREDA,-345.446,-584.396
422,379,PARQUE SARMIENTO II,Alfonsina Storni 3771,SAAVEDRA,COMUNA 12,CALZADA,-345.645,-585.029
423,43,PLAZA ALBERDI,Crisólito Larralde 4544,SAAVEDRA,COMUNA 12,CALZADA,-345.593,-584.876
424,387,LUNA,Luna 301,PARQUE PATRICIOS,COMUNA 4,PLAZA CERRADA,-34.639.913,-58.399.217
425,394,AV. LA PLATA,Av. La Plata 2400,NUEVA POMPEYA,COMUNA 4,VEREDA,-34.643.025,-58.422.804
426,396,PLAZA ALBERTI,Arcos 2665,BELGRANO,COMUNA 13,CALZADA,-34.555.175.319.362.500,-5.845.829.966.920.740
427,397,PARQUE SANTOJANNI,Acassuso 6373,LINIERS,COMUNA 9,VEREDA,-346.484,-585.136
428,225,HOSPITAL TORNÚ,Avalos 1052,PARQUE CHAS,COMUNA 15,CALZADA,-345.875,-584.741
429,201,PLAZA EJERCITO DE LOS ANDES,Albariño 40,VILLA LURO,COMUNA 10,VEREDA,-346.394,-585.099
431,362,PARQUE DE LA MEMORIA,Int. Güiraldes 2900,BELGRANO,COMUNA 13,VEREDA,-34.542.628,-58.436.913
432,187,JOSE MARIA MORENO,Jose Maria Moreno 141,CABALLITO,COMUNA 6,VEREDA,-346.198,-584.358
433,273,PLAZOLETA COLOMBIA,Brandsen 1619,BARRACAS,COMUNA 4,CALZADA,-346.377,-583.742
434,247,PLAZA LUCIO DEMARE,O`Higgins 3750,NUÑEZ,COMUNA 13,CALZADA,-345.458,-584.651
435,227,CLUB CIUDAD DE BUENOS AIRES,Miguel Sanchez 1477,NUÑEZ,COMUNA 13,VEREDA,-345.447,-584.598
436,253,PLAZA COLEGIALES,Tte. Benjamín Matienzo 2886,COLEGIALES,COMUNA 13,PLAZA,-34.576.349,-58.443.268
440,142,ARMENIA (EX ARMENIA Y GORRITI),Armenia 1525,PALERMO,COMUNA 14,CALZADA,-345.906,-584.289
441,16,LEGISLATURA,Peru 169,MONSERRAT,COMUNA 1,VEREDA,-34.61,-583.749
444,61,MINISTERIO DE ECONOMIA,Av. Hipolito Yrigoyen 250,MONSERRAT,COMUNA 1,VEREDA,-346.088,-583.708
448,393,BARRIO 31,Islas Galápagos 2800,RETIRO,COMUNA 1,VEREDA,-3.458.195.948.822.290,-5.837.879.992.249.480
449,352,SAN JOSE DE FLORES,Av. Rivadavia  6955,FLORES,COMUNA 7,PLAZA,-34.628.955,-58.463.123
453,28,PLAZA DE LA BANDERA,Av. Gaona 5181,VELEZ SARSFIELD,COMUNA 10,VEREDA,-346.295,-584.945
454,176,PLAZA DERECHOS DEL HOMBRE,Cortina 551,VILLA LURO,COMUNA 10,VEREDA,-346.341,-585.070
455,39,PLAZA DON BOSCO,Elpidio Gonzales 5181,VILLA LURO,COMUNA 10,CALZADA,-346.265,-585.080
457,110,PLAZA CD DE BANFF,Roma 786,VERSALLES,COMUNA 10,CALZADA,-346.281,-585.217
458,219,PARQUE CHACABUCO II,Av. Asamblea 1400,PARQUE CHACABUCO,COMUNA 7,VEREDA,-346.357,-584.412
459,327,PLAZA RICCHERI,Quevedo 3473,VILLA DEVOTO,COMUNA 11,VEREDA,-346.108,-585.192
460,133,BEIRO Y SEGUROLA,Segurola 3194,VILLA DEVOTO,COMUNA 11,CALZADA,-346.075,-585.119
461,106,MOSCONI Y CONSTITUYENTES,Av. Constituyentes 4710,VILLA PUEYRREDON,COMUNA 12,VEREDA,-345.810,-584.938
464,377,CIUDAD UNIVERSITARIA III,Intendente Güiraldes 2160,BELGRANO,COMUNA 13,VEREDA,-34.541,-584.441
465,192,HOSPITAL SIRIO,Gabriela Mistral 3325,VILLA DEVOTO,COMUNA 11,VEREDA,-345.905,-585.070
466,333,PARQUE DE LA ESTACIÓN,Dr. Tomás Manuel de Anchorena 170,ALMAGRO,COMUNA 5,VEREDA,-346.081,-584.118
467,328,SARMIENTO II,Sarmiento 2037,BALVANERA,COMUNA 3,VEREDA,-346.059,-583.959
468,84,TEATRO PICADERO,Riobamba 403,BALVANERA,COMUNA 3,VEREDA,-346.043,-583.938
469,62,PARQUE ONEGA,Av. Gral.Mosconi 3780,VILLA DEVOTO,COMUNA 11,VEREDA,-34.593.444,-58.513.700
471,173,EL LIBERTADOR,"Av. San Martín 6220
",VILLA DEVOTO,COMUNA 11,VEREDA,-34.594.629,-58.503.195
472,310,FREIRE II,Capitán Gral. Ramón Freire 1003,COLEGIALES,COMUNA 13,CALZADA,-34.575.187.076.659,-584.527.906.319.557
473,216,EMILIO LAMARCA,Emilio Lamarca 2066,VILLA DEL PARQUE,COMUNA 11,VEREDA,-34.613.317,-58.493.297
474,224,BAIGORRIA,Baigorria 4101,MONTE CASTRO,COMUNA 10,CALZADA,-34.610.464,-58.502.507
475,238,PLAZA LAS TOSCANERAS,Coronel Ramón Lista 5500,VILLA REAL,COMUNA 10,CALZADA,-34.616.378,-58.526.223
476,279,PLAZA MONTE CASTRO,Gualeguaychú 1900,MONTE CASTRO,COMUNA 10,VEREDA,-3.461.827.423.820.470,-58.496.582.674.242.600
477,311,SECRETARIA DE INNOVACIÓN,Av. Caseros 2309,PARQUE PATRICIOS,COMUNA 4,PLAZA,-34.635.256,-58.394.795
478,15,AMENÁBAR,Teodoro García 2613,COLEGIALES,COMUNA 13,CALZADA,-34.571.971,-58.447.372
479,347,CARABOBO,Pumacahua 9,FLORES,COMUNA 7,VEREDA,-34.626.343,-58.455.363
480,353,PLAZA VÉLEZ SARSFIELD,Chivilcoy 400,FLORESTA,COMUNA 10,VEREDA,-34.629.637,-58.483.559
481,369,PLAZA LARRAZABAL,Av. Larrazabal 380,LINIERS,COMUNA 9,VEREDA,-34.643.145,-58.512.476
482,376,PASEO DE LA COSTANERA,Av.Costanera 6200,PALERMO,COMUNA 14,VEREDA,-34.550.468,-58.430.024
483,175,PLAZA MACKENNA,Cramer 4500,SAAVEDRA,COMUNA 12,CALZADA,-34.543.649,-58.477.103
484,295,SUPERÍ,Núñez 3486,SAAVEDRA,COMUNA 12,CALZADA,-34.555.386,-58.476.730
485,230,PASEO DE LA COSTANERA II,Av. Costanera Rafael Obligado 5100,PALERMO,COMUNA 14,VEREDA,-34.553.465,-58.421.440
486,220,PLAZA FÉLIX LIMA,Ramallo 2199,NUÑEZ,COMUNA 13,VEREDA,-34.541.788,-58.470.345
487,239,AVENIDA CRÁMER,Av. Crámer 2900,BELGRANO,COMUNA 13,VEREDA,-34.558.062,-58.467.104
488,234,AVENIDA TRIUNVIRATO,Av. Triunvirato 5752,VILLA URQUIZA,COMUNA 12,VEREDA,-34.565.669,-58.495.081
489,288,"SECRETARÍA DE DEPORTES
",Av. Libertador 7100,NUÑEZ,COMUNA 13,VEREDA,-34.547.285,-58.456.397
490,245,COSTANERA NORTE,Av. Costanera Rafael Obligado 1700,PALERMO,COMUNA 14,VEREDA,-345.647.705.423.327,-58.401.989.873.041.700
491,266,PLAZA SABATTINI,Colpayo 699,CABALLITO,COMUNA 6,PLAZA,-34.612.476,-58.443.326
492,325,MEDRANO,Bartolomé Mitre 3905,ALMAGRO,COMUNA 5,VEREDA,-3.460.971,-5.842.156
493,208,NICASIO OROÑO,Nicasio Oroño 2598,LA PATERNAL,COMUNA 15,CALZADA,-34.596.586,-58.462.175
494,314,ALLENDE,Allende 2794,VILLA DEVOTO,COMUNA 11,CALZADA,-34.614.739,-58.511.663
496,52,CAMPANA II,Cochrane 3298,VILLA PUEYRREDON,COMUNA 12,CALZADA,-34.583.074,-58.513.127
497,307,CERETTI,Ceretti 2892,VILLA URQUIZA,COMUNA 12,VEREDA,-34.574.375,-58.496.180
498,55,HABANA,Gral. José Gervasio Artigas 4298,VILLA PUEYRREDON,COMUNA 12,CALZADA,-34.586.560,-58.494.917
499,286,FILOSOFIA Y LETRAS,José Bonifacio 1407,CABALLITO,COMUNA 6,CALZADA,-34.628.600.442.472.100,-5.844.677.001.739.400
500,235,COMUNA 13,Ibera 2377,NUÑEZ,COMUNA 13,VEREDA,-34.553.329,-58.464.259
501,20,GRECIA,Grecia 3290,NUÑEZ,COMUNA 13,VEREDA,-34.549.229,-58.461.960
502,296,SAN ISIDRO LABRADOR,Av. San Isidro Labrador 4850,SAAVEDRA,COMUNA 12,PLAZA,-34.540.635,-58.475.291
503,212,TRES ARROYOS,Tres arroyos 1500,CABALLITO,COMUNA 6,VEREDA,-34.608.777,-58.460.250
504,214,MORÓN,Morón 3089,FLORES,COMUNA 7,VEREDA,-34.624.823,-58.475.274
505,337,AV. J. B. JUSTO,Emilio Lamarca 915,VILLA SANTA RITA,COMUNA 11,VEREDA,-34.622.758,-58.481.934
506,40,PARQUE SALGUERO,Av. Costa Salguero 1222,PALERMO,COMUNA 14,VEREDA,-34.569.435,-58.399.369
507,271,VILLA SOLDATI II,23 de junio 4249,VILLA SOLDATI,COMUNA 8,VEREDA,-34.673.247.998.308.000,-5.845.531.940.019.610
508,170,RAFAELA,Rafaela 4811,VILLA LURO,COMUNA 10,CALZADA,-34.639.302,-58.494.771
509,386,VELEZ SARSFIELD,Av. Carrasco 214,VELEZ SARSFIELD,COMUNA 10,VEREDA,-34.633.478,-58.489.938
511,284,AV. FOREST,Delgado 1569,VILLA ORTUZAR,COMUNA 15,EXTENSION VEREDA,-34.575.381,-58.462.861
512,195,PARQUE CHAS,Av. De los Incas 4535,PARQUE CHAS,COMUNA 15,VEREDA,-3.458.165.668.337.760,-5.847.501.385.582.260
513,308,SAN MARTÍN II,Av. San Martín 5129,AGRONOMÍA,COMUNA 15,VEREDA,-34.597.068.982.726.700,-5.849.082.751.289.510
515,294,PLAZOLETA RÍO DE LA PLATA,Av. Sarmiento 500,PALERMO,COMUNA 14,VEREDA,-345.722.124,-584.128.435
516,368,PLAZA DE LA SHOA,Av. Del Libertador 3899,PALERMO,COMUNA 14,CALZADA,-34571029,-58422792
517,332,PACÍFICO II,Av. Int. Bullrich 300,PALERMO,COMUNA 14,VEREDA,-3.457.441,-5.842.476
518,329,LAS CAÑITAS,Clay 2818,PALERMO,COMUNA 14,VEREDA,-34.574.070,-58.431.763
519,53,AV. DEL LIBERTADOR,Av Del Libertador 100,RETIRO,COMUNA 1,VEREDA,-3.459.311.755.507.600,-5.837.515.497.704.220
520,180,PARQUE OLÍMPICO,Av. Coronel Roca 3490,VILLA SOLDATI,COMUNA 8,PARQUE CERRADO,-34.672.892,-58.444.657
521,226,AV. WARNES,Av. Warnes 2150,LA PATERNAL,COMUNA 15,VEREDA,-34.596.385,-58.466.246
522,119,PLAZOLETA BENEDIT,Av. Raúl Scalabrini Ortiz 5,VILLA CRESPO,COMUNA 15,VEREDA,-3.460.225,-5.844.255
523,389,AV. ELCANO,Av. Elcano 2998,COLEGIALES,COMUNA 13,VEREDA,-34.557.878,-58.460.525
524,338,AV. CABILDO,Av. Cabildo 2586,BELGRANO,COMUNA 13,VEREDA,-34.557.878,-58.460.525
525,317,ESCUELA RAGGIO,Av. Libertador 8620,NUÑEZ,COMUNA 13,VEREDA,-34.536.534,-58.466.584
526,88,NÚÑEZ,"Av, Comodoro Martín Rivadavia 1680",NUÑEZ,COMUNA 13,VEREDA,-34.541.574,-58.463.431
527,68,AV. CORDOBA,Av. Cordoba 5403,VILLA CRESPO,COMUNA 15,VEREDA,-34.588.726.980.456.100,-5.843.839.673.233.920
528,42,SKATE PARK VILLA LURO,Av. Rivadavia 9301,VILLA LURO,COMUNA 10,VEREDA,-34.636.678,-58.495.337
19,19,PLAZA SAN MARTIN,Av. Santa Fe 716,RETIRO,COMUNA 1,PLAZOLETA,-34.595.314,-58.377.603
529,11,RIO DE JANEIRO,Río de Janeiro 205,ALMAGRO,COMUNA 5,VEREDA,-34.613.353,-58.430.031
530,31,PARQUE RIVADAVIA,Av Rivadavia 4750,CABALLITO,COMUNA 6,VEREDA,-34.616.582,-58.432.332
148,323,PARQUE AVELLANEDA II,Av. Directorio 4295,PARQUE AVELLANEDA,COMUNA 9,VEREDA,-3.464.506.517.912.780,-5.848.443.255.141.520
531,48,JOSE AMALFITANI,Juan Bautista Justo 6383,VERSALLES,COMUNA 10,VEREDA,-34.633.625,-58.521.090
532,72,INSTITUTO POLITECNICO MODELO,Av Constituyentes 5880,VILLA PUEYRREDON,COMUNA 12,VEREDA,-34.572.873,-58.504.065
533,77,CRISOLOGO LARRALDE,Galván 3601,SAAVEDRA,COMUNA 12,VEREDA,-34.560.896,-58.492.233
534,81,PARQUE DE LAS CIENCIAS,Soler 5300,PALERMO,COMUNA 14,VEREDA,-34.583.028,-58.429.904
535,90,HONORIO PUEYRREDON,Honorio Pueyrredón 1653,VILLA CRESPO,COMUNA 15,VEREDA,-34.602.557,-58.449.758
538,47,PARQUE DE LA INNOVACIÓN,Av. G. Udaondo 1146,NUÑEZ,COMUNA 13,VEREDA,-34.545.091,-58.451.432